QZS-1R                  
1 49336U 21096A   24110.27869596 -.00000215  00000+0  00000+0 0  9990
2 49336  35.8250  91.4166 0752381 270.3731  81.4324  1.00280051  9105
